{
    "links": {
        "self": "http://www.neowsapp.com/rest/v1/neo/3620864?api_key=iIulBulltgU6a56xZRHN4H3l9WmuAYTsLGpBGhQ2"
    },
    "id": "3620864",
    "neo_reference_id": "3620864",
    "name": "(2012 XB133)",
    "designation": "2012 XB133",
    "nasa_jpl_url": "http://ssd.jpl.nasa.gov/sbdb.cgi?sstr=3620864",
    "absolute_magnitude_h": 25.1,
    "estimated_diameter": {
        "kilometers": {
            "estimated_diameter_min": 0.0253837029,
            "estimated_diameter_max": 0.0567596853
        },
        "meters": {
            "estimated_diameter_min": 25.3837029364,
            "estimated_diameter_max": 56.7596852866
        },
        "miles": {
            "estimated_diameter_min": 0.0157726969,
            "estimated_diameter_max": 0.0352688224
        },
        "feet": {
            "estimated_diameter_min": 83.279867942,
            "estimated_diameter_max": 186.2194458756
        }
    },
    "is_potentially_hazardous_asteroid": false,
    "close_approach_data": [
        {
            "close_approach_date": "1942-07-18",
            "close_approach_date_full": "1942-Jul-18 11:37",
            "epoch_date_close_approach": -866463780000,
            "relative_velocity": {
                "kilometers_per_second": "10.0344151665",
                "kilometers_per_hour": "36123.8945993298",
                "miles_per_hour": "22445.9832859002"
            },
            "miss_distance": {
                "astronomical": "0.0252704557",
                "lunar": "9.8302072673",
                "kilometers": "3780406.346649359",
                "miles": "2349035.5775807942"
            },
            "orbiting_body": "Mars"
        },
        {
            "close_approach_date": "2010-09-02",
            "close_approach_date_full": "2010-Sep-02 04:57",
            "epoch_date_close_approach": 1283403420000,
            "relative_velocity": {
                "kilometers_per_second": "14.2682917504",
                "kilometers_per_hour": "51365.850301499",
                "miles_per_hour": "31916.7418165064"
            },
            "miss_distance": {
                "astronomical": "0.2130853665",
                "lunar": "82.8902075685",
                "kilometers": "31877116.956569355",
                "miles": "19807521.989812899"
            },
            "orbiting_body": "Earth"
        },
        {
            "close_approach_date": "2012-12-08",
            "close_approach_date_full": "2012-Dec-08 07:31",
            "epoch_date_close_approach": 1354951860000,
            "relative_velocity": {
                "kilometers_per_second": "8.3839986099",
                "kilometers_per_hour": "30182.3949956509",
                "miles_per_hour": "18754.1664904921"
            },
            "miss_distance": {
                "astronomical": "0.0227146456",
                "lunar": "8.8359971384",
                "kilometers": "3398062.599564872",
                "miles": "2111458.1897523536"
            },
            "orbiting_body": "Earth"
        }
    ],
    "orbital_data": {
        "orbit_id": "9",
        "orbit_determination_date": "2017-04-06 08:47:37",
        "first_observation_date": "2012-12-12",
        "last_observation_date": "2013-01-06",
        "data_arc_in_days": 25,
        "observations_used": 53,
        "orbit_uncertainty": "7",
        "minimum_orbit_intersection": ".000737886",
        "jupiter_tisserand_invariant": "4.201",
        "epoch_osculation": "2459000.5",
        "eccentricity": ".4232210839592162",
        "semi_major_axis": "1.633327754228477",
        "inclination": "1.155846091091351",
        "ascending_node_longitude": "69.4680853715231",
        "orbital_period": "762.444857654893",
        "perihelion_distance": ".9420690116232288",
        "perihelion_argument": "330.5129540800412",
        "aphelion_distance": "2.324586496833726",
        "perihelion_time": "2459291.125249131097",
        "mean_anomaly": "222.7768439425275",
        "mean_motion": ".4721652935102456",
        "equinox": "J2000",
        "orbit_class": {
            "orbit_class_type": "APO",
            "orbit_class_description": "Near-Earth asteroid orbits which cross the Earth’s orbit similar to that of 1862 Apollo",
            "orbit_class_range": "a (semi-major axis) > 1.0 AU; q (perihelion) < 1.017 AU"
        }
    },
    "is_sentry_object": false
}